GLOBALSTAR M068         
1 32266U 07048D   25007.65980104 -.00000102  00000+0  85054-5 0  9995
2 32266  51.9894  71.5939 0001535 137.9621  31.2580 12.62812827797274
GLOBALSTAR M079         
1 37188U 10054A   25007.83380590 -.00000078  00000+0  14541-3 0  9990
2 37188  52.0037 267.9311 0000725  47.7558  32.9821 12.62269647656204
GLOBALSTAR M074         
1 37189U 10054B   25007.77799017 -.00000078  00000+0  14155-3 0  9993
2 37189  52.0015 267.4472 0001049  64.4152   2.9532 12.62261399656808
GLOBALSTAR M076         
1 37190U 10054C   25007.71673688 -.00000077  00000+0  14777-3 0  9993
2 37190  52.0024 267.7908 0001026  46.5532 342.3426 12.62275933656515
GLOBALSTAR M077         
1 37191U 10054D   25007.85888087 -.00000074  00000+0  16342-3 0  9997
2 37191  52.0046 224.1688 0001082  78.8656 295.3072 12.62269759656905
GLOBALSTAR M075         
1 37192U 10054E   25007.89668437 -.00000075  00000+0  15905-3 0  9992
2 37192  51.9965 309.5869 0000680  58.8732   8.9587 12.62271354655608
GLOBALSTAR M073         
1 37193U 10054F   25007.88474584 -.00000075  00000+0  16245-3 0  9998
2 37193  52.0034 223.3203 0001051  72.5083 300.6071 12.62262293657590
GLOBALSTAR M083         
1 37739U 11033A   25007.73962102 -.00000078  00000+0  14184-3 0  9997
2 37739  51.9831 172.7103 0000882 102.3572 271.3665 12.62270450626594
GLOBALSTAR M088         
1 37740U 11033B   25007.66672039 -.00000089  00000+0  84358-4 0  9991
2 37740  51.9745  78.5589 0000544 136.0131  26.6328 12.62267155622121
GLOBALSTAR M091         
1 37741U 11033C   25007.84042647 -.00000094  00000+0  55690-4 0  9991
2 37741  52.0013  41.2994 0000367 173.5599 358.0686 12.62272530622937
GLOBALSTAR M085         
1 37742U 11033D   25007.66881024 -.00000087  00000+0  92461-4 0  9991
2 37742  51.9892 353.0015 0000082  82.5343  89.3681 12.62263620623423
GLOBALSTAR M081         
1 37743U 11033E   25007.98173359 -.00000085  00000+0  10533-3 0  9999
2 37743  51.9980 354.7347 0000270   2.1406  33.4883 12.62275078623610
GLOBALSTAR M089         
1 37744U 11033F   25007.78407889 -.00000072  00000+0  17724-3 0  9991
2 37744  51.9948 309.5976 0000856  47.3531 348.6865 12.62274824624431
GLOBALSTAR M084         
1 38040U 11080A   25007.82003207 -.00000071  00000+0  18103-3 0  9995
2 38040  51.9982 176.6884 0001315  87.7943  51.8124 12.62273395602413
GLOBALSTAR M080         
1 38041U 11080B   25007.76636603 -.00000076  00000+0  15615-3 0  9991
2 38041  52.0034 178.4058 0001281  73.5582 300.0306 12.62260409602537
GLOBALSTAR M082         
1 38042U 11080C   25007.80549564 -.00000089  00000+0  82674-4 0  9990
2 38042  52.0066 133.7128 0001073 138.0507 354.8876 12.62271942603240
GLOBALSTAR M092         
1 38043U 11080D   25007.84414941 -.00000078  00000+0  14537-3 0  9995
2 38043  52.0056 223.9652 0001136  82.6567 346.0220 12.62271790601700
GLOBALSTAR M090         
1 38044U 11080E   25007.75967743 -.00000082  00000+0  12253-3 0  9997
2 38044  51.9879 127.8676 0000843 125.3624  39.0734 12.62265567603350
GLOBALSTAR M086         
1 38045U 11080F   25007.78440510 -.00000095  00000+0  49462-4 0  9996
2 38045  51.9890 128.3303 0000483  39.9185 117.3911 12.62265482603307
GLOBALSTAR M097         
1 39072U 13005A   25007.77655717 -.00000093  00000+0  62845-4 0  9990
2 39072  52.0060  42.7406 0000173 143.3347 216.7532 12.62268675550556
GLOBALSTAR M093         
1 39073U 13005B   25007.74951913 -.00000100  00000+0  21467-4 0  9999
2 39073  51.9824  36.3780 0000118 150.4783 209.6090 12.62260769550500
GLOBALSTAR M094         
1 39074U 13005C   25007.82912855 -.00000083  00000+0  11772-3 0  9998
2 39074  51.9977 310.3613 0000382  23.9473 336.1411 12.62266802552120
GLOBALSTAR M096         
1 39075U 13005D   25007.68397822 -.00000091  00000+0  71677-4 0  9994
2 39075  52.0095 359.1913 0000045 262.7027  97.3834 12.62266454551028
GLOBALSTAR M078         
1 39076U 13005E   25007.65698551 -.00000131  00000+0 -15121-3 0  9992
2 39076  51.9883  83.9972 0001314 161.6390 198.4524 12.62266620549648
GLOBALSTAR M095         
1 39077U 13005F   25007.52540858 -.00000077  00000+0  15089-3 0  9996
2 39077  51.9807  81.6777 0000817 170.5978 189.4904 12.62265133549483
GLOBALSTAR M087         
1 52888U 22064A   25007.85337218 -.00000074  00000+0  14883-3 0  9994
2 52888  51.9757 223.0921 0021587  27.1890 333.0115 12.88919006124777
